STARLINK-3951           
1 52533U 22051A   22275.65030474  .00000450  00000+0  46393-4 0  9992
2 52533  53.2167 358.7359 0001960  54.2088 305.9086 15.08845942 22121
STARLINK-3952           
1 52534U 22051B   22275.92168407 -.00001529  00000+0 -77981-4 0  9998
2 52534  53.2195 357.5206 0001882  46.6922 313.4227 15.08832022 22234
STARLINK-3958           
1 52535U 22051C   22275.65302943  .00000732  00000+0  64054-4 0  9994
2 52535  53.2195 358.7201 0001825  50.0759 310.0393 15.08849684 22124
STARLINK-3964           
1 52536U 22051D   22275.51687981 -.00004613  00000+0 -27204-3 0  9997
2 52536  53.2181 359.3333 0001690  51.6520 308.4624 15.08827225 22109
STARLINK-3897           
1 52537U 22051E   22275.64568333 -.00002759  00000+0 -15531-3 0  9990
2 52537  53.2174 358.7583 0001642  55.9483 304.1665 15.08835791 22121
STARLINK-3933           
1 52538U 22051F   22276.16824883  .00008448  00000+0  54821-3 0  9998
2 52538  53.2171 356.4081 0001785  39.8988 320.2135 15.08842128 22275
STARLINK-3757           
1 52539U 22051G   22275.50953418 -.00002567  00000+0 -14332-3 0  9994
2 52539  53.2168 359.3673 0001768  47.3648 312.7493 15.08826001 22106
STARLINK-3940           
1 52540U 22051H   22276.15720231  .00000126  00000+0  26021-4 0  9999
2 52540  53.2177 356.4560 0001927  45.9868 314.1282 15.08845712 22276
STARLINK-3845           
1 52541U 22051J   22275.52929811 -.00003033  00000+0 -17257-3 0  9997
2 52541  53.2155   4.2702 0001742  54.2942 305.8212 15.08832584 22037
STARLINK-3937           
1 52542U 22051K   22276.21976314  .00035844  00000+0  22570-2 0  9991
2 52542  53.2189 356.1619 0001925  42.4049 317.7092 15.08869239 22283
STARLINK-3926           
1 52543U 22051L   22275.63465317  .00002786  00000+0  19307-3 0  9997
2 52543  53.2159 358.8072 0001763  38.5508 321.5610 15.08839746 22121
STARLINK-3944           
1 52544U 22051M   22275.72066245 -.00002913  00000+0 -16504-3 0  9995
2 52544  53.2169   3.4201 0001921  44.6970 315.4177 15.08833168 22062
STARLINK-3939           
1 52545U 22051N   22276.22711786  .00005999  00000+0  39461-3 0  9991
2 52545  53.2173 356.1453 0001832  43.0408 317.0727 15.08847523 22288
STARLINK-3948           
1 52546U 22051P   22276.21334780  .00000959  00000+0  78342-4 0  9999
2 52546  53.2213 356.1938 0002053  41.1575 318.9571 15.08851144 22283
STARLINK-3869           
1 52547U 22051Q   22275.65810937 -.00001336  00000+0 -65860-4 0  9993
2 52547  53.2194   3.6975 0001942  42.8641 317.2502 15.08821323 22052
STARLINK-3931           
1 52548U 22051R   22276.19768159  .00010619  00000+0  68417-3 0  9994
2 52548  53.2200 356.2586 0001682  53.2134 306.9012 15.08845119 22285
STARLINK-3935           
1 52549U 22051S   22275.95112544 -.00001171  00000+0 -55482-4 0  9993
2 52549  53.2209 357.3646 0001818  55.1762 304.9401 15.08837385 22245
STARLINK-3965           
1 52550U 22051T   22275.94007794  .00002062  00000+0  14762-3 0  9997
2 52550  53.2195 357.4149 0001877  38.6194 321.4932 15.08837606 22249
STARLINK-3969           
1 52551U 22051U   22276.21239905  .00017272  00000+0  11003-2 0  9993
2 52551  53.2192 356.1933 0001854  50.4599 309.6557 15.08850278 22285
STARLINK-3966           
1 52552U 22051V   22276.12776278  .00008220  00000+0  53365-3 0  9994
2 52552  53.2199 356.5734 0001980  39.9723 320.1415 15.08859043 22276
STARLINK-3858           
1 52553U 22051W   22275.67880831  .00012398  00000+0  79570-3 0  9992
2 52553  53.2194 358.5886 0001873  46.8219 313.2930 15.08840689 22136
STARLINK-3770           
1 52554U 22051X   22275.71698482 -.00002926  00000+0 -16583-3 0  9990
2 52554  53.2167   3.4360 0001766  43.8062 316.3070 15.08831377 22069
STARLINK-3949           
1 52555U 22051Y   22275.93640800 -.00000520  00000+0 -14546-4 0  9992
2 52555  53.2198 357.4285 0001641  51.3185 308.7954 15.08839317 22242
STARLINK-3763           
1 52556U 22051Z   22275.77831810  .00021287  00000+0  13405-2 0  9990
2 52556  53.2176   3.1493 0002055  61.8033 298.3167 15.09140874 22078
STARLINK-3943           
1 52557U 22051AA  22275.92535577  .00001034  00000+0  83033-4 0  9993
2 52557  53.2216 357.4852 0001718  56.9120 303.2037 15.08850022 22248
STARLINK-3954           
1 52558U 22051AB  22276.19123765 -.00001281  00000+0 -62390-4 0  9995
2 52558  53.2122 346.3020 0001689  43.9974 316.1153 15.08852829 22417
STARLINK-3953           
1 52559U 22051AC  22275.91989501 -.00000210  00000+0  48993-5 0  9997
2 52559  53.2177 347.5103 0001637  60.4317 299.6838 15.08844457 22379
STARLINK-3956           
1 52560U 22051AD  22276.18755326 -.00001024  00000+0 -46228-4 0  9998
2 52560  53.2181 346.3084 0001773  52.1957 307.9196 15.08844418 22412
STARLINK-3955           
1 52561U 22051AE  22275.97089539 -.00000685  00000+0 -24941-4 0  9991
2 52561  53.2174   2.2986 0001826  44.7008 315.4131 15.08846581 22176
STARLINK-3957           
1 52562U 22051AF  22276.18020170  .00000487  00000+0  48677-4 0  9992
2 52562  53.2180 346.3366 0001924  41.5625 318.5513 15.08846685 22417
STARLINK-3942           
1 52563U 22051AG  22275.97456803  .00001057  00000+0  84476-4 0  9996
2 52563  53.2178   2.2773 0001796  52.8895 307.2261 15.08844186 22178
STARLINK-3959           
1 52564U 22051AH  22275.96722561 -.00001306  00000+0 -63986-4 0  9995
2 52564  53.2172   2.3109 0001525  49.0932 311.0192 15.08838357 22176
STARLINK-3911           
1 52565U 22051AJ  22275.91892833 -.00000375  00000+0 -54882-5 0  9992
2 52565  53.2186 347.5145 0001758  48.2201 311.8941 15.08839886 22374
STARLINK-3938           
1 52566U 22051AK  22275.74642535 -.00001774  00000+0 -93438-4 0  9999
2 52566  53.2198   3.2897 0001623  43.0358 317.0760 15.08827499 22076
STARLINK-3929           
1 52567U 22051AL  22276.17652718 -.00001343  00000+0 -66295-4 0  9995
2 52567  53.2180 346.3531 0001924  29.3306 330.7794 15.08834231 22417
STARLINK-3930           
1 52568U 22051AM  22275.90052968 -.00001889  00000+0 -10064-3 0  9994
2 52568  53.2189 347.5975 0001933  38.4425 321.6705 15.08821130 22375
STARLINK-3927           
1 52569U 22051AN  22275.90788280 -.00001602  00000+0 -82567-4 0  9999
2 52569  53.2194 347.5650 0001891  38.9887 321.1241 15.08838331 22373
STARLINK-3924           
1 52570U 22051AP  22276.22803667 -.00000751  00000+0 -29079-4 0  9997
2 52570  53.2178 346.1208 0001732  50.6264 309.4881 15.08839619 22420
STARLINK-3901           
1 52574U 22051AQ  22275.70547811  .00008528  00000+0  55317-3 0  9990
2 52574  53.2181 348.4769 0001742  45.3010 314.8124 15.08847382 22275
STARLINK-3920           
1 52575U 22051AR  22276.22436313  .00005582  00000+0  36841-3 0  9991
2 52575  53.2170 346.1344 0001722  48.0451 312.0687 15.08854893 22421
STARLINK-3932           
1 52576U 22051AS  22275.62179918  .00020183  00000+0  12829-2 0  9993
2 52576  53.2179 348.8383 0002135  36.1456 323.9680 15.08830963 22263
STARLINK-3836           
1 52577U 22051AT  22275.73906239  .00001812  00000+0  13190-3 0  9991
2 52577  53.2181   3.3361 0001698  51.3701 308.7443 15.08846822 22079
STARLINK-3833           
1 52578U 22051AU  22276.20642303 -.00000074  00000+0  13429-4 0  9990
2 52578  53.2185   1.2355 0001740  45.4429 314.6705 15.08839207 22215
STARLINK-3893           
1 52579U 22051AV  22276.12913301  .00001387  00000+0  10522-3 0  9998
2 52579  53.2196   1.5840 0001491  58.4911 301.6227 15.08843811 22203
STARLINK-3919           
1 52580U 22051AW  22275.93410271  .00000643  00000+0  58480-4 0  9996
2 52580  53.2182   2.4585 0001751  33.9587 326.1517 15.08840030 22172
STARLINK-3915           
1 52581U 22051AX  22276.21331735 -.00000737  00000+0 -28191-4 0  9998
2 52581  53.2205 346.1858 0002060  39.1518 320.9623 15.08847515 22429
STARLINK-3886           
1 52582U 22051AY  22275.49203293 -.00001322  00000+0 -64978-4 0  9999
2 52582  53.2203 349.4238 0002139  44.5729 315.5435 15.08844820 22244
STARLINK-3895           
1 52583U 22051AZ  22276.20963387  .00000712  00000+0  62829-4 0  9990
2 52583  53.2197 346.2047 0001608  51.3764 308.7372 15.08844684 22427
STARLINK-3922           
1 52584U 22051BA  22276.21701026 -.00003179  00000+0 -18169-3 0  9991
2 52584  53.2201 346.1716 0001949  34.0539 326.0578 15.08842524 22424
STARLINK-3906           
1 52585U 22051BB  22276.13603101  .00000752  00000+0  65330-4 0  9993
2 52585  53.2197 346.5436 0001763  44.5887 315.5247 15.08851468 22410
STARLINK-3910           
1 52586U 22051BC  22276.20596101  .00020096  00000+0  12764-2 0  9997
2 52586  53.2188 346.2215 0001853  47.8164 312.2985 15.08860338 22427
STARLINK-3867           
1 52587U 22051BD  22276.19859058  .00000149  00000+0  27468-4 0  9995
2 52587  53.2208 346.2632 0002042  41.8884 318.2265 15.08847712 22426
STARLINK-3917           
1 52588U 22051BE  22276.19491013  .00000577  00000+0  54306-4 0  9995
2 52588  53.2189 346.2822 0001547  55.7264 304.3875 15.08850509 22422
